[{"OBJECT_NAME":"STARLINK-33758","OBJECT_ID":"2025-101L","EPOCH":"2026-03-08T20:04:55.124832","MEAN_MOTION":15.27581192,"ECCENTRICITY":5.078e-5,"INCLINATION":43.0012,"RA_OF_ASC_NODE":2.8821,"ARG_OF_PERICENTER":258.3313,"MEAN_ANOMALY":101.7481,"EPHEMERIS_TYPE":0,"CLASSIFICATION_TYPE":"U","NORAD_CAT_ID":64004,"ELEMENT_SET_NO":999,"REV_AT_EPOCH":4692,"BSTAR":0.0015990439,"MEAN_MOTION_DOT":0.00044004,"MEAN_MOTION_DDOT":0},{"OBJECT_NAME":"AVUM R\/B","OBJECT_ID":"2021-105D","EPOCH":"2026-03-09T22:34:58.119744","MEAN_MOTION":15.31894528,"ECCENTRICITY":0.0086274,"INCLINATION":74.9219,"RA_OF_ASC_NODE":283.347,"ARG_OF_PERICENTER":214.1912,"MEAN_ANOMALY":145.3726,"EPHEMERIS_TYPE":0,"CLASSIFICATION_TYPE":"U","NORAD_CAT_ID":49467,"ELEMENT_SET_NO":999,"REV_AT_EPOCH":23867,"BSTAR":0.00030152064,"MEAN_MOTION_DOT":0.00010411,"MEAN_MOTION_DDOT":0}]
